[{"OBJECT_NAME":"STARLINK-30043","OBJECT_ID":"2023-102P","EPOCH":"2026-03-09T22:00:01.999584","MEAN_MOTION":15.16913406,"ECCENTRICITY":0.00016842,"INCLINATION":43,"RA_OF_ASC_NODE":246.5874,"ARG_OF_PERICENTER":259.2585,"MEAN_ANOMALY":70.8182,"EPHEMERIS_TYPE":0,"CLASSIFICATION_TYPE":"U","NORAD_CAT_ID":57417,"ELEMENT_SET_NO":999,"REV_AT_EPOCH":538,"BSTAR":0.0056084196,"MEAN_MOTION_DOT":0.0011416,"MEAN_MOTION_DDOT":0},{"OBJECT_NAME":"TRANSPORTER-15 OBJECT AA","OBJECT_ID":"2025-276AA","EPOCH":"2026-03-09T17:09:28.865952","MEAN_MOTION":15.18098016,"ECCENTRICITY":0.00045616,"INCLINATION":97.4256,"RA_OF_ASC_NODE":143.8764,"ARG_OF_PERICENTER":6.1284,"MEAN_ANOMALY":354.0005,"EPHEMERIS_TYPE":0,"CLASSIFICATION_TYPE":"U","NORAD_CAT_ID":66690,"ELEMENT_SET_NO":999,"REV_AT_EPOCH":1531,"BSTAR":0.00028455511,"MEAN_MOTION_DOT":5.737e-5,"MEAN_MOTION_DDOT":0}]
